0 DELTA 1 DEB
1 10188U 77065S   13282.45320453  .00000790  00000-0  19038-3 0  3696
2 10188 029.0670 337.5860 0722925 097.1392 345.7135 13.51850001760908
0 DELTA 1 DEB
1 10188U 77065S   13284.53420619  .00000767  00000-0  18290-3 0  3707
2 10188 029.0674 326.8962 0722918 114.3752 033.2335 13.51851306761181
0 DELTA 1 DEB
1 10188U 77065S   13287.17503278  .00000823  00000-0  19671-3 0  3711
2 10188 029.0683 313.3310 0722756 136.2389 285.2671 13.51854276761549
0 DELTA 1 DEB
1 10188U 77065S   13289.47826549  .00000911  00000-0  21896-3 0  3726
2 10188 029.0694 301.4998 0722723 155.3161 334.3688 13.51861095761850
0 DELTA 1 DEB
1 10188U 77065S   13292.20392796  .00001078  00000-0  26229-3 0  3734
2 10188 029.0706 287.4995 0722720 177.8891 279.3623 13.51864199762227
0 DELTA 1 DEB
1 10188U 77065S   13294.35715932  .00001241  00000-0  30563-3 0  3742
2 10188 029.0714 276.4402 0722703 195.7208 318.5315 13.51869255762513
